GLOBALSTAR M045         
1 25676U 99019A   25140.90020500 -.00000070  00000+0  20398-3 0  9994
2 25676  51.9994  23.0426 0000875  96.0655 346.2944 12.27061967190040
GLOBALSTAR M019         
1 25677U 99019B   25140.78840420  .00000045  00000+0  14104-2 0  9990
2 25677  51.9843 151.7983 0001368 268.7299 261.7264 12.13874508181810
GLOBALSTAR M044         
1 25678U 99019C   25140.66159353 -.00000062  00000+0  30517-3 0  9993
2 25678  51.9954 100.0670 0006484 349.3294 181.7250 11.90250106168041
GLOBALSTAR M042         
1 25679U 99019D   25141.22534825 -.00000081  00000+0  10093-3 0  9996
2 25679  51.9986 127.0665 0002852 247.6157 125.5697 12.22082946182030
GLOBALSTAR M025         
1 25770U 99031A   25140.72815498 -.00000058  00000+0  29937-3 0  9995
2 25770  51.9805 222.8831 0001854 119.5934  49.5696 11.22558021478620
GLOBALSTAR M049         
1 25771U 99031B   25140.75523700  .00000031  00000+0  33381-2 0  9998
2 25771  51.9875 256.2053 0002094 325.2972  34.7687 11.12114155114370
GLOBALSTAR M047         
1 25772U 99031C   25140.77397675 -.00000064  00000+0  15011-3 0  9999
2 25772  51.9834 255.7511 0016701 213.8530 146.1211 11.31928149468001
GLOBALSTAR M052         
1 25773U 99031D   25140.90321604 -.00000013  00000+0  17833-2 0  9991
2 25773  51.9898   4.9270 0003092 117.5122  11.6135 11.15059449475463
